start=new Date('2022-03-19T00:00:00.000Z').valueOf();
sats=[{"OBJECT_TYPE":"PAYLOAD","FILE":"3364342","GP_ID":"199044069","MEAN_ELEMENT_THEORY":"SGP4","REV_AT_EPOCH":"7773","SEMIMAJOR_AXIS":"6925.405","PERIOD":"95.593","MEAN_MOTION":"15.06381579","PERIAPSIS":"546.048","OBJECT_ID":"2020-074F","INCLINATION":"53.0577","TLE_LINE2":"2 46744  53.0577   2.6295 0001764  51.5870 308.5277 15.06381579 77733","RCS_SIZE":"LARGE","NORAD_CAT_ID":"46744","ELEMENT_SET_NO":"999","ARG_OF_PERICENTER":"51.5870","OBJECT_NAME":"STARLINK-1894","CLASSIFICATION_TYPE":"U","RA_OF_ASC_NODE":"2.6295","COUNTRY_CODE":"US","BSTAR":"0.00038362000000","SITE":"AFETR","MEAN_MOTION_DDOT":"0.0000000000000","TLE_LINE1":"1 46744U 20074F   22077.08042800  .00005434  00000-0  38362-3 0  9999","MEAN_ANOMALY":"308.5277","DECAY_DATE":null,"REF_FRAME":"TEME","APOAPSIS":"548.492","TIME_SYSTEM":"UTC","LAUNCH_DATE":"2020-10-24","EPOCH":"2022-03-18T01:55:48.979200","ECCENTRICITY":"0.00017640","EPHEMERIS_TYPE":"0","MEAN_MOTION_DOT":"0.00005434","CENTER_NAME":"EARTH"},{"TIME_SYSTEM":"UTC","APOAPSIS":"445.086","REF_FRAME":"TEME","ECCENTRICITY":"0.00077680","EPOCH":"2022-03-18T22:17:32.954496","EPHEMERIS_TYPE":"0","LAUNCH_DATE":"2020-10-24","MEAN_MOTION_DOT":"0.00006662","CENTER_NAME":"EARTH","MEAN_ANOMALY":"78.4759","TLE_LINE1":"1 46745U 20074G   22077.92885364  .00006662  00000-0  16245-3 0  9993","MEAN_MOTION_DDOT":"0.0000000000000","DECAY_DATE":null,"RCS_SIZE":"LARGE","ELEMENT_SET_NO":"999","NORAD_CAT_ID":"46745","COUNTRY_CODE":"US","ARG_OF_PERICENTER":"281.5373","CLASSIFICATION_TYPE":"U","OBJECT_NAME":"STARLINK-1898","RA_OF_ASC_NODE":"327.4195","SITE":"AFETR","BSTAR":"0.00016245000000","REV_AT_EPOCH":"7830","MEAN_ELEMENT_THEORY":"SGP4","OBJECT_TYPE":"PAYLOAD","FILE":"3364757","GP_ID":"199103056","SEMIMAJOR_AXIS":"6817.925","PERIOD":"93.377","INCLINATION":"53.0563","PERIAPSIS":"434.493","OBJECT_ID":"2020-074G","TLE_LINE2":"2 46745  53.0563 327.4195 0007768 281.5373  78.4759 15.42142368 78302","MEAN_MOTION":"15.42142368"},{"PERIOD":"95.592","PERIAPSIS":"546.132","INCLINATION":"53.0564","OBJECT_ID":"2020-074H","TLE_LINE2":"2 46746  53.0564   1.9734 0001578  54.5093 305.6043 15.06396316 77750","MEAN_MOTION":"15.06396316","MEAN_ELEMENT_THEORY":"SGP4","REV_AT_EPOCH":"7775","OBJECT_TYPE":"PAYLOAD","FILE":"3364342","GP_ID":"199044570","SEMIMAJOR_AXIS":"6925.360","COUNTRY_CODE":"US","ARG_OF_PERICENTER":"54.5093","RA_OF_ASC_NODE":"1.9734","CLASSIFICATION_TYPE":"U","OBJECT_NAME":"STARLINK-1905","SITE":"AFETR","BSTAR":"0.00043034000000","RCS_SIZE":"LARGE","ELEMENT_SET_NO":"999","NORAD_CAT_ID":"46746","DECAY_DATE":null,"TLE_LINE1":"1 46746U 20074H   22077.22786593  .00006133  00000-0  43034-3 0  9990","MEAN_ANOMALY":"305.6043","MEAN_MOTION_DDOT":"0.0000000000000","MEAN_MOTION_DOT":"0.00006133","CENTER_NAME":"EARTH","TIME_SYSTEM":"UTC","REF_FRAME":"TEME","APOAPSIS":"548.318","EPOCH":"2022-03-18T05:28:07.616352","ECCENTRICITY":"0.00015780","EPHEMERIS_TYPE":"0","LAUNCH_DATE":"2020-10-24"},{"MEAN_MOTION":"15.06393850","TLE_LINE2":"2 46747  53.0573 358.7744 0001688  66.9276 293.1891 15.06393850 77861","PERIAPSIS":"546.063","OBJECT_ID":"2020-074J","INCLINATION":"53.0573","PERIOD":"95.593","SEMIMAJOR_AXIS":"6925.367","FILE":"3364757","GP_ID":"199103557","OBJECT_TYPE":"PAYLOAD","REV_AT_EPOCH":"7786","MEAN_ELEMENT_THEORY":"SGP4","BSTAR":"0.00008983600000","SITE":"AFETR","CLASSIFICATION_TYPE":"U","OBJECT_NAME":"STARLINK-1908","RA_OF_ASC_NODE":"358.7744","ARG_OF_PERICENTER":"66.9276","COUNTRY_CODE":"US","ELEMENT_SET_NO":"999","NORAD_CAT_ID":"46747","RCS_SIZE":"LARGE","DECAY_DATE":null,"MEAN_MOTION_DDOT":"0.0000000000000","TLE_LINE1":"1 46747U 20074J   22077.93924579  .00001057  00000-0  89836-4 0  9998","MEAN_ANOMALY":"293.1891","CENTER_NAME":"EARTH","MEAN_MOTION_DOT":"0.00001057","LAUNCH_DATE":"2020-10-24","EPHEMERIS_TYPE":"0","EPOCH":"2022-03-18T22:32:30.836256","ECCENTRICITY":"0.00016880","APOAPSIS":"548.401","REF_FRAME":"TEME","TIME_SYSTEM":"UTC"},{"MEAN_MOTION_DDOT":"0.0000000000000","MEAN_ANOMALY":"298.7536","TLE_LINE1":"1 46748U 20074K   22077.88029764  .00009463  00000-0  65319-3 0  9993","DECAY_DATE":null,"REF_FRAME":"TEME","APOAPSIS":"548.298","TIME_SYSTEM":"UTC","LAUNCH_DATE":"2020-10-24","ECCENTRICITY":"0.00016080","EPOCH":"2022-03-18T21:07:37.716096","EPHEMERIS_TYPE":"0","MEAN_MOTION_DOT":"0.00009463","CENTER_NAME":"EARTH","OBJECT_TYPE":"PAYLOAD","GP_ID":"199104295","FILE":"3364757","REV_AT_EPOCH":"7785","MEAN_ELEMENT_THEORY":"SGP4","SEMIMAJOR_AXIS":"6925.320","PERIOD":"95.592","MEAN_MOTION":"15.06409351","PERIAPSIS":"546.071","INCLINATION":"53.0560","OBJECT_ID":"2020-074K","TLE_LINE2":"2 46748  53.0560 359.0511 0001608  61.3615 298.7536 15.06409351 77852","RCS_SIZE":"LARGE","NORAD_CAT_ID":"46748","ELEMENT_SET_NO":"999","ARG_OF_PERICENTER":"61.3615","RA_OF_ASC_NODE":"359.0511","CLASSIFICATION_TYPE":"U","OBJECT_NAME":"STARLINK-1910","COUNTRY_CODE":"US","BSTAR":"0.00065319000000","SITE":"AFETR"},{"MEAN_MOTION_DDOT":"0.0000000000000","TLE_LINE1":"1 46749U 20074L   22077.02515635  .00004171  00000-0  29888-3 0  9999","MEAN_ANOMALY":"298.9337","DECAY_DATE":null,"REF_FRAME":"TEME","APOAPSIS":"548.378","TIME_SYSTEM":"UTC","LAUNCH_DATE":"2020-10-24","EPHEMERIS_TYPE":"0","EPOCH":"2022-03-18T00:36:13.508640","ECCENTRICITY":"0.00016220","MEAN_MOTION_DOT":"0.00004171","CENTER_NAME":"EARTH","GP_ID":"199044319","FILE":"3364342","OBJECT_TYPE":"PAYLOAD","REV_AT_EPOCH":"7772","MEAN_ELEMENT_THEORY":"SGP4","SEMIMAJOR_AXIS":"6925.389","PERIOD":"95.593","MEAN_MOTION":"15.06386674","TLE_LINE2":"2 46749  53.0567   2.8905 0001622  61.1815 298.9337 15.06386674 77725","PERIAPSIS":"546.131","INCLINATION":"53.0567","OBJECT_ID":"2020-074L","RCS_SIZE":"LARGE","ELEMENT_SET_NO":"999","NORAD_CAT_ID":"46749","OBJECT_NAME":"STARLINK-1911","CLASSIFICATION_TYPE":"U","RA_OF_ASC_NODE":"2.8905","ARG_OF_PERICENTER":"61.1815","COUNTRY_CODE":"US","BSTAR":"0.00029888000000","SITE":"AFETR"},{"RCS_SIZE":"LARGE","NORAD_CAT_ID":"46751","ELEMENT_SET_NO":"999","COUNTRY_CODE":"US","RA_OF_ASC_NODE":"2.9049","CLASSIFICATION_TYPE":"U","OBJECT_NAME":"STARLINK-1920","ARG_OF_PERICENTER":"71.2117","SITE":"AFETR","BSTAR":"0.00114280000000","REV_AT_EPOCH":"7772","MEAN_ELEMENT_THEORY":"SGP4","GP_ID":"199045070","FILE":"3364342","OBJECT_TYPE":"PAYLOAD","SEMIMAJOR_AXIS":"6925.342","PERIOD":"95.592","TLE_LINE2":"2 46751  53.0566   2.9049 0001557  71.2117 288.9041 15.06402016 77721","PERIAPSIS":"546.129","OBJECT_ID":"2020-074N","INCLINATION":"53.0566","MEAN_MOTION":"15.06402016","TIME_SYSTEM":"UTC","APOAPSIS":"548.286","REF_FRAME":"TEME","EPHEMERIS_TYPE":"0","ECCENTRICITY":"0.00015570","EPOCH":"2022-03-18T00:30:55.310400","LAUNCH_DATE":"2020-10-24","MEAN_MOTION_DOT":"0.00016782","CENTER_NAME":"EARTH","MEAN_ANOMALY":"288.9041","TLE_LINE1":"1 46751U 20074N   22077.02147350  .00016782  00000-0  11428-2 0  9998","MEAN_MOTION_DDOT":"0.0000000000000","DECAY_DATE":null},{"ARG_OF_PERICENTER":"55.6701","CLASSIFICATION_TYPE":"U","OBJECT_NAME":"STARLINK-1921","RA_OF_ASC_NODE":"2.2491","COUNTRY_CODE":"US","BSTAR":"0.00069792000000","SITE":"AFETR","RCS_SIZE":"LARGE","NORAD_CAT_ID":"46752","ELEMENT_SET_NO":"999","PERIOD":"95.592","MEAN_MOTION":"15.06394643","INCLINATION":"53.0550","PERIAPSIS":"546.031","OBJECT_ID":"2020-074P","TLE_LINE2":"2 46752  53.0550   2.2491 0001732  55.6701 304.4452 15.06394643 77747","OBJECT_TYPE":"PAYLOAD","GP_ID":"199044810","FILE":"3364342","MEAN_ELEMENT_THEORY":"SGP4","REV_AT_EPOCH":"7774","SEMIMAJOR_AXIS":"6925.365","MEAN_MOTION_DOT":"0.00010128","CENTER_NAME":"EARTH","REF_FRAME":"TEME","APOAPSIS":"548.429","TIME_SYSTEM":"UTC","LAUNCH_DATE":"2020-10-24","EPOCH":"2022-03-18T03:57:54.937152","ECCENTRICITY":"0.00017320","EPHEMERIS_TYPE":"0","DECAY_DATE":null,"MEAN_MOTION_DDOT":"0.0000000000000","TLE_LINE1":"1 46752U 20074P   22077.16521918  .00010128  00000-0  69792-3 0  9996","MEAN_ANOMALY":"304.4452"},{"CENTER_NAME":"EARTH","MEAN_MOTION_DOT":"0.00002736","EPHEMERIS_TYPE":"0","EPOCH":"2022-03-18T22:16:35.300640","ECCENTRICITY":"0.00015710","LAUNCH_DATE":"2020-10-24","TIME_SYSTEM":"UTC","REF_FRAME":"TEME","APOAPSIS":"548.288","DECAY_DATE":null,"MEAN_ANOMALY":"294.4938","TLE_LINE1":"1 46753U 20074Q   22077.92818635  .00002736  00000-0  20251-3 0  9999","MEAN_MOTION_DDOT":"0.0000000000000","SITE":"AFETR","BSTAR":"0.00020251000000","COUNTRY_CODE":"US","CLASSIFICATION_TYPE":"U","OBJECT_NAME":"STARLINK-1922","RA_OF_ASC_NODE":"358.8219","ARG_OF_PERICENTER":"65.6215","ELEMENT_SET_NO":"999","NORAD_CAT_ID":"46753","RCS_SIZE":"LARGE","TLE_LINE2":"2 46753  53.0556 358.8219 0001571  65.6215 294.4938 15.06404337 77866","OBJECT_ID":"2020-074Q","PERIAPSIS":"546.112","INCLINATION":"53.0556","MEAN_MOTION":"15.06404337","PERIOD":"95.592","SEMIMAJOR_AXIS":"6925.335","MEAN_ELEMENT_THEORY":"SGP4","REV_AT_EPOCH":"7786","GP_ID":"199103796","FILE":"3364757","OBJECT_TYPE":"PAYLOAD"},{"RCS_SIZE":"LARGE","ELEMENT_SET_NO":"999","NORAD_CAT_ID":"46754","COUNTRY_CODE":"US","CLASSIFICATION_TYPE":"U","OBJECT_NAME":"STARLINK-1923","RA_OF_ASC_NODE":"358.7890","ARG_OF_PERICENTER":"61.8066","SITE":"AFETR","BSTAR":"0.00014597000000","REV_AT_EPOCH":"7786","MEAN_ELEMENT_THEORY":"SGP4","FILE":"3364757","GP_ID":"199103057","OBJECT_TYPE":"PAYLOAD","SEMIMAJOR_AXIS":"6925.352","PERIOD":"95.592","TLE_LINE2":"2 46754  53.0557 358.7890 0001477  61.8066 298.3072 15.06398889 77865","PERIAPSIS":"546.194","INCLINATION":"53.0557","OBJECT_ID":"2020-074R","MEAN_MOTION":"15.06398889","TIME_SYSTEM":"UTC","REF_FRAME":"TEME","APOAPSIS":"548.240","EPHEMERIS_TYPE":"0","ECCENTRICITY":"0.00014770","EPOCH":"2022-03-18T22:27:12.529152","LAUNCH_DATE":"2020-10-24","MEAN_MOTION_DOT":"0.00001893","CENTER_NAME":"EARTH","MEAN_ANOMALY":"298.3072","TLE_LINE1":"1 46754U 20074R   22077.93556168  .00001893  00000-0  14597-3 0  9990","MEAN_MOTION_DDOT":"0.0000000000000","DECAY_DATE":null}];
